{
  "type": "FeatureCollection",
  "features": [
    {
      "type": "Feature",
      "properties": {
        "norad_id": 66828,
        "name": "STARLINK-35982",
        "group": "last-30-days",
        "lat": -29.87306655763435,
        "lon": 177.06138305652382,
        "alt_km": 369.379390456721,
        "timestamp": "2025-12-16T03:53:25.817127+00:00",
        "meta_object_name": "STARLINK-35982",
        "meta_object_id": "2025-280H",
        "meta_epoch": "2025-12-15T06:00:04.999968",
        "meta_mean_motion": 15.71825547,
        "meta_eccentricity": 0.00031684,
        "meta_inclination": 69.9969,
        "meta_ra_of_asc_node": 191.7021,
        "meta_arg_of_pericenter": 269.579,
        "meta_mean_anomaly": 305.8371,
        "meta_ephemeris_type": 0,
        "meta_classification_type": "U",
        "meta_norad_cat_id": 66828,
        "meta_element_set_no": 999,
        "meta_rev_at_epoch": 330,
        "meta_bstar": -0.018086524,
        "meta_mean_motion_dot": -0.02070662,
        "meta_mean_motion_ddot": 0,
        "tle_line1": "1 66828U 25280H   25349.25005787 -.02070662  00000+0 -18087-1 0  9993",
        "tle_line2": "2 66828  69.9969 191.7021 0003168 269.5790 305.8371 15.71825547  3305"
      },
      "geometry": {
        "type": "Point",
        "coordinates": [
          177.06138305652382,
          -29.87306655763435
        ]
      }
    },
    {
      "type": "Feature",
      "properties": {
        "norad_id": 66829,
        "name": "STARLINK-36084",
        "group": "last-30-days",
        "lat": -31.611743887521374,
        "lon": 176.1848517230009,
        "alt_km": 369.5185680457762,
        "timestamp": "2025-12-16T03:53:25.817138+00:00",
        "meta_object_name": "STARLINK-36084",
        "meta_object_id": "2025-280J",
        "meta_epoch": "2025-12-15T06:00:04.999968",
        "meta_mean_motion": 15.718299,
        "meta_eccentricity": 0.00030735,
        "meta_inclination": 69.997,
        "meta_ra_of_asc_node": 191.704,
        "meta_arg_of_pericenter": 267.0288,
        "meta_mean_anomaly": 306.4577,
        "meta_ephemeris_type": 0,
        "meta_classification_type": "U",
        "meta_norad_cat_id": 66829,
        "meta_element_set_no": 999,
        "meta_rev_at_epoch": 314,
        "meta_bstar": -0.018031213,
        "meta_mean_motion_dot": -0.02065333,
        "meta_mean_motion_ddot": 0,
        "tle_line1": "1 66829U 25280J   25349.25005787 -.02065333  00000+0 -18031-1 0  9992",
        "tle_line2": "2 66829  69.9970 191.7040 0003073 267.0288 306.4577 15.71829900  3143"
      },
      "geometry": {
        "type": "Point",
        "coordinates": [
          176.1848517230009,
          -31.611743887521374
        ]
      }
    },
    {
      "type": "Feature",
      "properties": {
        "norad_id": 66830,
        "name": "STARLINK-35881",
        "group": "last-30-days",
        "lat": -28.096672779516798,
        "lon": 177.92150713008382,
        "alt_km": 369.39661692570735,
        "timestamp": "2025-12-16T03:53:25.817148+00:00",
        "meta_object_name": "STARLINK-35881",
        "meta_object_id": "2025-280K",
        "meta_epoch": "2025-12-15T06:00:04.999968",
        "meta_mean_motion": 15.71820077,
        "meta_eccentricity": 0.00030757,
        "meta_inclination": 69.9965,
        "meta_ra_of_asc_node": 191.6989,
        "meta_arg_of_pericenter": 267.0675,
        "meta_mean_anomaly": 310.2651,
        "meta_ephemeris_type": 0,
        "meta_classification_type": "U",
        "meta_norad_cat_id": 66830,
        "meta_element_set_no": 999,
        "meta_rev_at_epoch": 330,
        "meta_bstar": -0.017995509,
        "meta_mean_motion_dot": -0.02060985,
        "meta_mean_motion_ddot": 0,
        "tle_line1": "1 66830U 25280K   25349.25005787 -.02060985  00000+0 -17996-1 0  9991",
        "tle_line2": "2 66830  69.9965 191.6989 0003075 267.0675 310.2651 15.71820077  3302"
      },
      "geometry": {
        "type": "Point",
        "coordinates": [
          177.92150713008382,
          -28.096672779516798
        ]
      }
    },
    {
      "type": "Feature",
      "properties": {
        "norad_id": 66831,
        "name": "STARLINK-35788",
        "group": "last-30-days",
        "lat": -26.342360824658304,
        "lon": 178.74377614487565,
        "alt_km": 369.2567249769145,
        "timestamp": "2025-12-16T03:53:25.817158+00:00",
        "meta_object_name": "STARLINK-35788",
        "meta_object_id": "2025-280L",
        "meta_epoch": "2025-12-15T06:00:04.999968",
        "meta_mean_motion": 15.7182553,
        "meta_eccentricity": 0.00031353,
        "meta_inclination": 69.9973,
        "meta_ra_of_asc_node": 191.6977,
        "meta_arg_of_pericenter": 269.4408,
        "meta_mean_anomaly": 309.8075,
        "meta_ephemeris_type": 0,
        "meta_classification_type": "U",
        "meta_norad_cat_id": 66831,
        "meta_element_set_no": 999,
        "meta_rev_at_epoch": 330,
        "meta_bstar": -0.018081486,
        "meta_mean_motion_dot": -0.02070118,
        "meta_mean_motion_ddot": 0,
        "tle_line1": "1 66831U 25280L   25349.25005787 -.02070118  00000+0 -18081-1 0  9997",
        "tle_line2": "2 66831  69.9973 191.6977 0003135 269.4408 309.8075 15.71825530  3309"
      },
      "geometry": {
        "type": "Point",
        "coordinates": [
          178.74377614487565,
          -26.342360824658304
        ]
      }
    },
    {
      "type": "Feature",
      "properties": {
        "norad_id": 66832,
        "name": "STARLINK-35768",
        "group": "last-30-days",
        "lat": -24.574975791771386,
        "lon": 179.5421997123089,
        "alt_km": 369.255114025942,
        "timestamp": "2025-12-16T03:53:25.817172+00:00",
        "meta_object_name": "STARLINK-35768",
        "meta_object_id": "2025-280M",
        "meta_epoch": "2025-12-15T06:00:04.999968",
        "meta_mean_motion": 15.71832591,
        "meta_eccentricity": 0.00031225,
        "meta_inclination": 69.9968,
        "meta_ra_of_asc_node": 191.6944,
        "meta_arg_of_pericenter": 267.9716,
        "meta_mean_anomaly": 313.187,
        "meta_ephemeris_type": 0,
        "meta_classification_type": "U",
        "meta_norad_cat_id": 66832,
        "meta_element_set_no": 999,
        "meta_rev_at_epoch": 330,
        "meta_bstar": -0.018140681,
        "meta_mean_motion_dot": -0.02076601,
        "meta_mean_motion_ddot": 0,
        "tle_line1": "1 66832U 25280M   25349.25005787 -.02076601  00000+0 -18141-1 0  9998",
        "tle_line2": "2 66832  69.9968 191.6944 0003122 267.9716 313.1870 15.71832591  3305"
      },
      "geometry": {
        "type": "Point",
        "coordinates": [
          179.5421997123089,
          -24.574975791771386
        ]
      }
    },
    {
      "type": "Feature",
      "properties": {
        "norad_id": 66833,
        "name": "STARLINK-35858",
        "group": "last-30-days",
        "lat": -22.791590337814043,
        "lon": -179.6744738476856,
        "alt_km": 369.17955539682134,
        "timestamp": "2025-12-16T03:53:25.817183+00:00",
        "meta_object_name": "STARLINK-35858",
        "meta_object_id": "2025-280N",
        "meta_epoch": "2025-12-15T06:00:04.999968",
        "meta_mean_motion": 15.7182989,
        "meta_eccentricity": 0.00032738,
        "meta_inclination": 69.9969,
        "meta_ra_of_asc_node": 191.6928,
        "meta_arg_of_pericenter": 266.4587,
        "meta_mean_anomaly": 316.6185,
        "meta_ephemeris_type": 0,
        "meta_classification_type": "U",
        "meta_norad_cat_id": 66833,
        "meta_element_set_no": 999,
        "meta_rev_at_epoch": 330,
        "meta_bstar": -0.018107553,
        "meta_mean_motion_dot": -0.02073227,
        "meta_mean_motion_ddot": 0,
        "tle_line1": "1 66833U 25280N   25349.25005787 -.02073227  00000+0 -18108-1 0  9993",
        "tle_line2": "2 66833  69.9969 191.6928 0003273 266.4587 316.6185 15.71829890  3301"
      },
      "geometry": {
        "type": "Point",
        "coordinates": [
          -179.6744738476856,
          -22.791590337814043
        ]
      }
    },
    {
      "type": "Feature",
      "properties": {
        "norad_id": 66834,
        "name": "STARLINK-35840",
        "group": "last-30-days",
        "lat": -21.001520739601382,
        "lon": -178.91195357711595,
        "alt_km": 369.1948772895821,
        "timestamp": "2025-12-16T03:53:25.817193+00:00",
        "meta_object_name": "STARLINK-35840",
        "meta_object_id": "2025-280P",
        "meta_epoch": "2025-12-15T06:00:04.999968",
        "meta_mean_motion": 15.71827857,
        "meta_eccentricity": 0.00032253,
        "meta_inclination": 69.9964,
        "meta_ra_of_asc_node": 191.6898,
        "meta_arg_of_pericenter": 263.5742,
        "meta_mean_anomaly": 321.4181,
        "meta_ephemeris_type": 0,
        "meta_classification_type": "U",
        "meta_norad_cat_id": 66834,
        "meta_element_set_no": 999,
        "meta_rev_at_epoch": 330,
        "meta_bstar": -0.01805684,
        "meta_mean_motion_dot": -0.02067918,
        "meta_mean_motion_ddot": 0,
        "tle_line1": "1 66834U 25280P   25349.25005787 -.02067918  00000+0 -18057-1 0  9997",
        "tle_line2": "2 66834  69.9964 191.6898 0003225 263.5742 321.4181 15.71827857  3302"
      },
      "geometry": {
        "type": "Point",
        "coordinates": [
          -178.91195357711595,
          -21.001520739601382
        ]
      }
    }
  ]
}